[{"OBJECT_NAME":"STARLINK-11224 [DTC]","OBJECT_ID":"2024-133D","EPOCH":"2026-03-09T11:59:47.153184","MEAN_MOTION":15.69702543,"ECCENTRICITY":0.00011739,"INCLINATION":53.1597,"RA_OF_ASC_NODE":147.208,"ARG_OF_PERICENTER":77.3818,"MEAN_ANOMALY":282.7331,"EPHEMERIS_TYPE":0,"CLASSIFICATION_TYPE":"U","NORAD_CAT_ID":60304,"ELEMENT_SET_NO":999,"REV_AT_EPOCH":9378,"BSTAR":7.26842e-6,"MEAN_MOTION_DOT":2.92e-6,"MEAN_MOTION_DDOT":0},{"OBJECT_NAME":"OBJECT AC","OBJECT_ID":"2021-022AC","EPOCH":"2026-03-09T23:52:41.913120","MEAN_MOTION":15.70257251,"ECCENTRICITY":0.00077249,"INCLINATION":97.3906,"RA_OF_ASC_NODE":343.806,"ARG_OF_PERICENTER":62.9634,"MEAN_ANOMALY":297.2416,"EPHEMERIS_TYPE":0,"CLASSIFICATION_TYPE":"U","NORAD_CAT_ID":47958,"ELEMENT_SET_NO":999,"REV_AT_EPOCH":27427,"BSTAR":0.0010525747,"MEAN_MOTION_DOT":0.00129469,"MEAN_MOTION_DDOT":0}]
